[{"OBJECT_NAME":"STARLINK-35757","OBJECT_ID":"2025-247F","EPOCH":"2026-03-09T14:37:32.414880","MEAN_MOTION":15.30186691,"ECCENTRICITY":0.0001066,"INCLINATION":53.159,"RA_OF_ASC_NODE":191.6556,"ARG_OF_PERICENTER":66.3916,"MEAN_ANOMALY":293.7196,"EPHEMERIS_TYPE":0,"CLASSIFICATION_TYPE":"U","NORAD_CAT_ID":66270,"ELEMENT_SET_NO":999,"REV_AT_EPOCH":2107,"BSTAR":0.00059282,"MEAN_MOTION_DOT":0.00017232,"MEAN_MOTION_DDOT":0},{"OBJECT_NAME":"COSMOS 2251 DEB","OBJECT_ID":"1993-036DE","EPOCH":"2026-03-09T20:53:28.838688","MEAN_MOTION":15.29467846,"ECCENTRICITY":0.00306247,"INCLINATION":73.7716,"RA_OF_ASC_NODE":223.0836,"ARG_OF_PERICENTER":342.1726,"MEAN_ANOMALY":17.8397,"EPHEMERIS_TYPE":0,"CLASSIFICATION_TYPE":"U","NORAD_CAT_ID":33901,"ELEMENT_SET_NO":999,"REV_AT_EPOCH":90839,"BSTAR":0.0037194515,"MEAN_MOTION_DOT":0.00109321,"MEAN_MOTION_DDOT":0}]
